[{"OBJECT_NAME":"STARLINK-2697","OBJECT_ID":"2021-040AY","EPOCH":"2026-03-10T00:00:02.999808","MEAN_MOTION":15.25807567,"ECCENTRICITY":7.478e-5,"INCLINATION":53.1393,"RA_OF_ASC_NODE":189.5177,"ARG_OF_PERICENTER":109.17,"MEAN_ANOMALY":135.2099,"EPHEMERIS_TYPE":0,"CLASSIFICATION_TYPE":"U","NORAD_CAT_ID":48474,"ELEMENT_SET_NO":999,"REV_AT_EPOCH":574,"BSTAR":0.05619378,"MEAN_MOTION_DOT":0.01604191,"MEAN_MOTION_DDOT":0},{"OBJECT_NAME":"KUIPER-00259","OBJECT_ID":"2026-030Y","EPOCH":"2026-03-09T16:59:17.898720","MEAN_MOTION":15.3511217,"ECCENTRICITY":0.00085878,"INCLINATION":51.8804,"RA_OF_ASC_NODE":219.1883,"ARG_OF_PERICENTER":48.4056,"MEAN_ANOMALY":311.7664,"EPHEMERIS_TYPE":0,"CLASSIFICATION_TYPE":"U","NORAD_CAT_ID":67786,"ELEMENT_SET_NO":999,"REV_AT_EPOCH":509,"BSTAR":0.0010952248,"MEAN_MOTION_DOT":0.00037736,"MEAN_MOTION_DDOT":0}]
